SL-3 R/B                
1 19046U 88032B   26077.55419517  .00004480  00000+0  20951-3 0  9995
2 19046  97.5199  60.7744 0025233 199.1526 160.8763 15.20008778 53454
SL-16 R/B               
1 19120U 88039B   26077.36535856  .00000006  00000+0  25388-4 0  9999
2 19120  71.0147  50.2011 0023201 321.7816  38.1664 14.19617726959612
COSMOS 1953             
1 19210U 88050A   26077.46290203  .00005846  00000+0  20810-3 0  9998
2 19210  82.5100 149.4239 0012659  95.0796 265.1889 15.28668002 39124
SL-8 R/B                
1 19257U 88053B   26077.50379957  .00000289  00000+0  10220-3 0  9991
2 19257  74.0450  96.2179 0021543 274.3754 238.2197 14.38921589977866
COSMOS 1975             
1 19573U 88093A   26077.49932570  .00005205  00000+0  18787-3 0  9999
2 19573  82.5165 108.8394 0012890 134.3724 225.8574 15.28186601 20756
SL-14 R/B               
1 19574U 88093B   26077.64090034  .00000539  00000+0  59143-4 0  9994
2 19574  82.5323  33.6413 0021039  12.9904 159.6912 14.85667481  2343
SL-16 R/B               
1 19650U 88102B   26077.45173768 -.00000019  00000+0  14787-4 0  9994
2 19650  70.9991 133.0618 0014585 347.8751  12.2019 14.16156057928132
INTERCOSMOS 24          
1 20261U 89080A   26077.46044802  .00000587  00000+0  17467-3 0  9993
2 20261  82.6017  98.6913 1186671 272.4415  74.1646 12.59570718667909
SL-14 R/B               
1 20262U 89080C   26077.35798295  .00000469  00000+0  13442-3 0  9992
2 20262  82.5967 167.6237 1230775 164.9438 199.2059 12.50503429661237
DELTA 1 R/B             
1 20323U 89089B   26077.58768157  .00000348  00000+0  94494-4 0  9991
2 20323  97.0699 283.6107 0070718  94.4002 266.5280 14.50670691897025
ARIANE 40 R/B           
1 20443U 90005H   26077.56939286  .00000236  00000+0  88573-4 0  9992
2 20443  98.3064 137.9655 0010408 171.5598 188.5768 14.39876257894084
DELTA 2 R/B(1)          
1 20453U 90008B   26077.48228125  .00054424  00000+0  61731-3 0  9994
2 20453  35.6025 117.0979 0082125 340.0430  19.7103 15.57097799927506
