CCSDS_OMM_VERS = 2.0
CREATION_DATE  = 
ORIGINATOR     = 

OBJECT_NAME    = SL-3 R/B
OBJECT_ID      = 1988-032B
CENTER_NAME    = EARTH
REF_FRAME      = TEME
TIME_SYSTEM    = UTC
MEAN_ELEMENT_THEORY = SGP/SGP4

EPOCH          = 2026-03-18T13:18:02.462688
MEAN_MOTION    = 15.20008778
ECCENTRICITY   = .00252334
INCLINATION    = 97.5199
RA_OF_ASC_NODE = 60.7744
ARG_OF_PERICENTER = 199.1526
MEAN_ANOMALY   = 160.8763

EPHEMERIS_TYPE = 0
CLASSIFICATION_TYPE = U
NORAD_CAT_ID   = 19046
ELEMENT_SET_NO = 999
REV_AT_EPOCH   = 5345
BSTAR          = .20950689E-3
MEAN_MOTION_DOT = .448E-4
MEAN_MOTION_DDOT = 0

CCSDS_OMM_VERS = 2.0
CREATION_DATE  = 
ORIGINATOR     = 

OBJECT_NAME    = SL-16 R/B
OBJECT_ID      = 1988-039B
CENTER_NAME    = EARTH
REF_FRAME      = TEME
TIME_SYSTEM    = UTC
MEAN_ELEMENT_THEORY = SGP/SGP4

EPOCH          = 2026-03-18T08:46:06.979584
MEAN_MOTION    = 14.19617726
ECCENTRICITY   = .00232016
INCLINATION    = 71.0147
RA_OF_ASC_NODE = 50.2011
ARG_OF_PERICENTER = 321.7816
MEAN_ANOMALY   = 38.1664

EPHEMERIS_TYPE = 0
CLASSIFICATION_TYPE = U
NORAD_CAT_ID   = 19120
ELEMENT_SET_NO = 999
REV_AT_EPOCH   = 95961
BSTAR          = .25387807E-4
MEAN_MOTION_DOT = .6E-7
MEAN_MOTION_DDOT = 0

CCSDS_OMM_VERS = 2.0
CREATION_DATE  = 
ORIGINATOR     = 

OBJECT_NAME    = COSMOS 1953
OBJECT_ID      = 1988-050A
CENTER_NAME    = EARTH
REF_FRAME      = TEME
TIME_SYSTEM    = UTC
MEAN_ELEMENT_THEORY = SGP/SGP4

EPOCH          = 2026-03-18T11:06:34.735392
MEAN_MOTION    = 15.28668002
ECCENTRICITY   = .00126595
INCLINATION    = 82.5100
RA_OF_ASC_NODE = 149.4239
ARG_OF_PERICENTER = 95.0796
MEAN_ANOMALY   = 265.1889

EPHEMERIS_TYPE = 0
CLASSIFICATION_TYPE = U
NORAD_CAT_ID   = 19210
ELEMENT_SET_NO = 999
REV_AT_EPOCH   = 3912
BSTAR          = .20809881E-3
MEAN_MOTION_DOT = .5846E-4
MEAN_MOTION_DDOT = 0

CCSDS_OMM_VERS = 2.0
CREATION_DATE  = 
ORIGINATOR     = 

OBJECT_NAME    = SL-8 R/B
OBJECT_ID      = 1988-053B
CENTER_NAME    = EARTH
REF_FRAME      = TEME
TIME_SYSTEM    = UTC
MEAN_ELEMENT_THEORY = SGP/SGP4

EPOCH          = 2026-03-18T12:05:28.282848
MEAN_MOTION    = 14.38921589
ECCENTRICITY   = .00215434
INCLINATION    = 74.0450
RA_OF_ASC_NODE = 96.2179
ARG_OF_PERICENTER = 274.3754
MEAN_ANOMALY   = 238.2197

EPHEMERIS_TYPE = 0
CLASSIFICATION_TYPE = U
NORAD_CAT_ID   = 19257
ELEMENT_SET_NO = 999
REV_AT_EPOCH   = 97786
BSTAR          = .10219578E-3
MEAN_MOTION_DOT = .289E-5
MEAN_MOTION_DDOT = 0

CCSDS_OMM_VERS = 2.0
CREATION_DATE  = 
ORIGINATOR     = 

OBJECT_NAME    = COSMOS 1975
OBJECT_ID      = 1988-093A
CENTER_NAME    = EARTH
REF_FRAME      = TEME
TIME_SYSTEM    = UTC
MEAN_ELEMENT_THEORY = SGP/SGP4

EPOCH          = 2026-03-18T11:59:01.740480
MEAN_MOTION    = 15.28186601
ECCENTRICITY   = .00128901
INCLINATION    = 82.5165
RA_OF_ASC_NODE = 108.8394
ARG_OF_PERICENTER = 134.3724
MEAN_ANOMALY   = 225.8574

EPHEMERIS_TYPE = 0
CLASSIFICATION_TYPE = U
NORAD_CAT_ID   = 19573
ELEMENT_SET_NO = 999
REV_AT_EPOCH   = 2075
BSTAR          = .18786647E-3
MEAN_MOTION_DOT = .5205E-4
MEAN_MOTION_DDOT = 0

CCSDS_OMM_VERS = 2.0
CREATION_DATE  = 
ORIGINATOR     = 

OBJECT_NAME    = SL-14 R/B
OBJECT_ID      = 1988-093B
CENTER_NAME    = EARTH
REF_FRAME      = TEME
TIME_SYSTEM    = UTC
MEAN_ELEMENT_THEORY = SGP/SGP4

EPOCH          = 2026-03-18T15:22:53.789376
MEAN_MOTION    = 14.85667481
ECCENTRICITY   = .0021039
INCLINATION    = 82.5323
RA_OF_ASC_NODE = 33.6413
ARG_OF_PERICENTER = 12.9904
MEAN_ANOMALY   = 159.6912

EPHEMERIS_TYPE = 0
CLASSIFICATION_TYPE = U
NORAD_CAT_ID   = 19574
ELEMENT_SET_NO = 999
REV_AT_EPOCH   = 234
BSTAR          = .59142708E-4
MEAN_MOTION_DOT = .539E-5
MEAN_MOTION_DDOT = 0

CCSDS_OMM_VERS = 2.0
CREATION_DATE  = 
ORIGINATOR     = 

OBJECT_NAME    = SL-16 R/B
OBJECT_ID      = 1988-102B
CENTER_NAME    = EARTH
REF_FRAME      = TEME
TIME_SYSTEM    = UTC
MEAN_ELEMENT_THEORY = SGP/SGP4

EPOCH          = 2026-03-18T10:50:30.135552
MEAN_MOTION    = 14.16156057
ECCENTRICITY   = .0014585
INCLINATION    = 70.9991
RA_OF_ASC_NODE = 133.0618
ARG_OF_PERICENTER = 347.8751
MEAN_ANOMALY   = 12.2019

EPHEMERIS_TYPE = 0
CLASSIFICATION_TYPE = U
NORAD_CAT_ID   = 19650
ELEMENT_SET_NO = 999
REV_AT_EPOCH   = 92813
BSTAR          = .14787257E-4
MEAN_MOTION_DOT = -.19E-6
MEAN_MOTION_DDOT = 0

CCSDS_OMM_VERS = 2.0
CREATION_DATE  = 
ORIGINATOR     = 

OBJECT_NAME    = INTERCOSMOS 24
OBJECT_ID      = 1989-080A
CENTER_NAME    = EARTH
REF_FRAME      = TEME
TIME_SYSTEM    = UTC
MEAN_ELEMENT_THEORY = SGP/SGP4

EPOCH          = 2026-03-18T11:03:02.708928
MEAN_MOTION    = 12.59570718
ECCENTRICITY   = .11866711
INCLINATION    = 82.6017
RA_OF_ASC_NODE = 98.6913
ARG_OF_PERICENTER = 272.4415
MEAN_ANOMALY   = 74.1646

EPHEMERIS_TYPE = 0
CLASSIFICATION_TYPE = U
NORAD_CAT_ID   = 20261
ELEMENT_SET_NO = 999
REV_AT_EPOCH   = 66790
BSTAR          = .17467036E-3
MEAN_MOTION_DOT = .587E-5
MEAN_MOTION_DDOT = 0

CCSDS_OMM_VERS = 2.0
CREATION_DATE  = 
ORIGINATOR     = 

OBJECT_NAME    = SL-14 R/B
OBJECT_ID      = 1989-080C
CENTER_NAME    = EARTH
REF_FRAME      = TEME
TIME_SYSTEM    = UTC
MEAN_ELEMENT_THEORY = SGP/SGP4

EPOCH          = 2026-03-18T08:35:29.726880
MEAN_MOTION    = 12.50503429
ECCENTRICITY   = .12307757
INCLINATION    = 82.5967
RA_OF_ASC_NODE = 167.6237
ARG_OF_PERICENTER = 164.9438
MEAN_ANOMALY   = 199.2059

EPHEMERIS_TYPE = 0
CLASSIFICATION_TYPE = U
NORAD_CAT_ID   = 20262
ELEMENT_SET_NO = 999
REV_AT_EPOCH   = 66123
BSTAR          = .1344201E-3
MEAN_MOTION_DOT = .469E-5
MEAN_MOTION_DDOT = 0

CCSDS_OMM_VERS = 2.0
CREATION_DATE  = 
ORIGINATOR     = 

OBJECT_NAME    = DELTA 1 R/B
OBJECT_ID      = 1989-089B
CENTER_NAME    = EARTH
REF_FRAME      = TEME
TIME_SYSTEM    = UTC
MEAN_ELEMENT_THEORY = SGP/SGP4

EPOCH          = 2026-03-18T14:06:15.687648
MEAN_MOTION    = 14.50670691
ECCENTRICITY   = .00707182
INCLINATION    = 97.0699
RA_OF_ASC_NODE = 283.6107
ARG_OF_PERICENTER = 94.4002
MEAN_ANOMALY   = 266.5280

EPHEMERIS_TYPE = 0
CLASSIFICATION_TYPE = U
NORAD_CAT_ID   = 20323
ELEMENT_SET_NO = 999
REV_AT_EPOCH   = 89702
BSTAR          = .94494278E-4
MEAN_MOTION_DOT = .348E-5
MEAN_MOTION_DDOT = 0

CCSDS_OMM_VERS = 2.0
CREATION_DATE  = 
ORIGINATOR     = 

OBJECT_NAME    = ARIANE 40 R/B
OBJECT_ID      = 1990-005H
CENTER_NAME    = EARTH
REF_FRAME      = TEME
TIME_SYSTEM    = UTC
MEAN_ELEMENT_THEORY = SGP/SGP4

EPOCH          = 2026-03-18T13:39:55.543104
MEAN_MOTION    = 14.39876257
ECCENTRICITY   = .00104081
INCLINATION    = 98.3064
RA_OF_ASC_NODE = 137.9655
ARG_OF_PERICENTER = 171.5598
MEAN_ANOMALY   = 188.5768

EPHEMERIS_TYPE = 0
CLASSIFICATION_TYPE = U
NORAD_CAT_ID   = 20443
ELEMENT_SET_NO = 999
REV_AT_EPOCH   = 89408
BSTAR          = .88572573E-4
MEAN_MOTION_DOT = .236E-5
MEAN_MOTION_DDOT = 0

CCSDS_OMM_VERS = 2.0
CREATION_DATE  = 
ORIGINATOR     = 

OBJECT_NAME    = DELTA 2 R/B(1)
OBJECT_ID      = 1990-008B
CENTER_NAME    = EARTH
REF_FRAME      = TEME
TIME_SYSTEM    = UTC
MEAN_ELEMENT_THEORY = SGP/SGP4

EPOCH          = 2026-03-18T11:34:29.100000
MEAN_MOTION    = 15.57097799
ECCENTRICITY   = .00821256
INCLINATION    = 35.6025
RA_OF_ASC_NODE = 117.0979
ARG_OF_PERICENTER = 340.0430
MEAN_ANOMALY   = 19.7103

EPHEMERIS_TYPE = 0
CLASSIFICATION_TYPE = U
NORAD_CAT_ID   = 20453
ELEMENT_SET_NO = 999
REV_AT_EPOCH   = 92750
BSTAR          = .61730705E-3
MEAN_MOTION_DOT = .54424E-3
MEAN_MOTION_DDOT = 0

